#aP2005  8 29  0  0  0.00000000      96 ORBIT IGb00 HLM  IGS
## 1338  86400.00000000   900.00000000 53611 0.0000000000000
+   29     1  2  3  4  5  6  7  8  9 10 11 13 14 15 16 18 19
+         20 21 22 23 24 25 26 27 28 29 30 31  0  0  0  0  0
+          0  0  0  0  0  0  0  0  0  0  0  0  0  0  0  0  0
+          0  0  0  0  0  0  0  0  0  0  0  0  0  0  0  0  0
+          0  0  0  0  0  0  0  0  0  0  0  0  0  0  0  0  0
++         4  4  3  3  4  3  3  3  3  4  4  4  3  3  3  3  4
++         4  3  4  4  3  4  3  3  4  5  3  4  0  0  0  0  0
++         0  0  0  0  0  0  0  0  0  0  0  0  0  0  0  0  0
++         0  0  0  0  0  0  0  0  0  0  0  0  0  0  0  0  0
++         0  0  0  0  0  0  0  0  0  0  0  0  0  0  0  0  0
%c cc cc ccc ccc cccc cccc cccc cccc ccccc ccccc ccccc ccccc
%c cc cc ccc ccc cccc cccc cccc cccc ccccc ccccc ccccc ccccc
%f  0.0000000  0.000000000  0.00000000000  0.000000000000000
%f  0.0000000  0.000000000  0.00000000000  0.000000000000000
%i    0    0    0    0      0      0      0      0         0
%i    0    0    0    0      0      0      0      0         0
/* RAPID ORBIT COMBINATION FROM WEIGHTED AVERAGE OF:        
/* cod esa gfz jpl ngs sio usn                              
/* REFERENCED TO IGS TIME AND TO WEIGHTED MEAN POLE:        
/* CLK ANT Z-OFFSET (M): II/IIA 1.023; IIR 0.000            
*  2005  8 29 13  0  0.00000000
P  1 -21011.037310 -15634.315149  -4368.179024      5.716552
P  2  14284.581926   6868.784101 -21606.575489    -27.341973
P  3 -23498.002486  -8982.894655   8817.462321     29.842456
P  4   7098.957659  20019.049748 -15744.400871    -11.997433
P  5  22091.998442 -13697.268931  -5167.367122    126.503870
P  6   3108.828867 -16744.221821 -20162.401384    801.325412
P  7  15265.396303  20132.036900   8844.995575    306.221024
P  8   1216.981600  24347.434404   9897.095479    -39.726961
P  9  14020.886131 -14736.043952  16388.991773     -5.273098
P 10  24092.354823    458.317441 -11570.255353     69.261442
P 11 -14042.400394  15257.681976  16450.595242    260.231742
P 13   -691.743282  17310.545268 -20226.512168     11.372620
P 14 -15493.964659 -20297.523682   7439.998416    -27.124601
P 15  -1784.975204 -23629.877024  11446.987287    481.565121
P 16 -22132.419260  -3089.535570 -14325.629126      7.534517
P 18   7829.056349 -16384.838514  19356.553641   -183.391343
P 19 -19474.030675  -1240.909041  18132.225863    -25.685306
P 20 -21146.008565  13700.361435  -8466.311152    -50.558689
P 21   6204.321864 -25542.814724    -88.269538    125.081404
P 22  -5719.040063 -14292.175137  21801.800249     36.849064
P 23 -11982.088669   9569.997844 -21796.865496    177.707824
P 24  -4016.819935  25888.128234  -3429.764399     42.642931
P 25 -10869.602630 -16325.224915 -17490.046496    101.965263
P 26  20544.206156   4081.031906  16328.387069     12.193509
P 27  -4062.003306  25990.905040   -765.633871     13.097990
P 28   3598.693224  14945.259712  21895.825875     42.530056
P 29  22155.376634   7354.067156  13103.349801    280.060772
P 30  13506.430159 -17073.340074 -15396.964190    361.081873
P 31   8255.045313  20135.368135  14705.810067     15.592408
*  2005  8 29 13 15  0.00000000
P  1 -21157.952896 -16005.687454  -1493.341767      5.719147
P  2  13853.820457   9210.385674 -21012.518491    -27.341843
P  3 -24045.464524  -9732.223940   6227.712782     29.845016
P  4   6574.265391  21645.327727 -13651.778162    -12.021099
P  5  22609.252917 -13578.205679  -2393.395314    126.506328
P  6   5065.166543 -15352.983879 -20862.867521    801.340566
P  7  14218.300511  19704.972452  11315.420656    306.237439
P  8    779.390738  25289.821260   7235.422927    -39.728050
P  9  13950.084228 -12651.778561  18080.904236     -5.275058
P 10  22792.065854   1082.840052 -13912.903761     69.261847
P 11 -14229.266837  13247.112753  17977.812706    260.235024
P 13  -2522.773866  15836.864723 -21260.893457     11.374097
P 14 -14619.217530 -19796.540333  10099.272328    -27.123760
P 15  -1255.355680 -24736.085257   8911.405986    481.569643
P 16 -20539.937571  -3872.323092 -16345.947209      7.535043
P 18   9892.772536 -16912.438053  17870.459376   -183.394175
P 19 -20811.389852  -2677.820982  16398.382967    -25.685458
P 20 -21983.705829  13767.263998  -5767.294533    -50.557405
P 21   6495.750171 -25300.106049  -2937.686262    125.083810
P 22  -3374.437541 -15039.865565  21787.358384     36.850983
P 23 -13857.001187   8004.228522 -21321.680388    177.705838
P 24  -4328.962772  26085.085704   -569.702564     42.644313
P 25 -10536.114311 -18277.834032 -15704.211958    101.965511
P 26  21834.692302   5314.281719  14261.874212     12.190729
P 27  -4334.871243  25646.385624  -3618.253090     13.099719
P 28   1293.535927  15736.296824  21563.433237     42.529441
P 29  23099.195035   8280.854243  10662.672184    280.081530
P 30  15078.098669 -17486.094499 -13283.997020    361.094918
P 31   6601.485473  19237.954239  16597.913174     15.594312
*  2005  8 29 13 30  0.00000000
P  1 -21066.752819 -16166.808192   1407.184077      5.720797
P  2  13553.749160  11485.197390 -20066.525587    -27.341934
P  3 -24374.023056 -10300.346270   3532.162089     29.848322
P  4   6161.838574  23047.463793 -11320.525313    -12.044881
P  5  22854.704244 -13331.620475    422.121177    126.510281
P  6   7133.241710 -14022.767923 -21197.534168    801.355215
P  7  12931.773991  19185.695953  13596.390922    306.254117
P  8    436.289824  25944.302433   4445.722656    -39.729477
P  9  13971.939583 -10389.246133  19445.250816     -5.275118
P 10  21297.574886   1877.382595 -16020.496983     69.261784
P 11 -14503.632444  11093.508907  19192.836835    260.238215
P 13  -4512.060513  14411.726459 -21932.335202     11.375686
P 14 -13482.718043 -19173.350853  12585.533538    -27.123318
P 15   -836.626770 -25573.155183   6218.262044    481.574158
P 16 -18794.904063  -4824.199351 -18084.146302      7.535892
P 18  11755.930294 -17478.137426  16075.423264   -183.397029
P 19 -22057.997839  -3910.644922  14384.575136    -25.685547
P 20 -22534.538832  13747.735969  -2969.157418    -50.555903
P 21   6751.592433 -24752.429075  -5734.942131    125.086604
P 22  -1092.783419 -15900.923150  21403.395726     36.853227
P 23 -15751.678215   6584.269437 -20483.666790    177.703928
P 24  -4578.426358  25975.918246   2300.314258     42.647871
P 25 -10303.942855 -20021.940976 -13640.042426    101.966290
P 26  22992.303050   6318.542942  11951.407536     12.187835
P 27  -4614.768750  24991.319848  -6406.395579     13.101173
P 28   -917.452683  16625.747213  20866.858602     42.529218
P 29  23860.591305   8991.576855   8042.468553    280.101849
P 30  16404.974846 -17865.905105 -10944.421031    361.108301
P 31   4738.657980  18311.166860  18194.234898     15.596913
*  2005  8 29 13 45  0.00000000
P  1 -20713.870321 -16149.082501   4283.596527      5.722096
P  2  13376.363378  13648.195432 -18784.430036    -27.342063
P  3 -24458.081232 -10710.855983    776.721288     29.851909
P  4   5835.347505  24193.213958  -8791.044670    -12.068292
P  5  22843.137452 -12925.474484   3230.275694    126.513865
P  6   9275.719397 -12783.557961 -21160.718050    801.370057
P  7  11413.042560  18612.821584  15650.516802    306.270628
P  8    153.231682  26292.456558   1577.437307    -39.730438
P  9  14106.478425  -7993.114098  20457.082281     -5.276716
P 10  19650.591958   2854.679063 -17857.182116     69.263228
P 11 -14878.372273   8837.659307  20075.022153    260.241672
P 13  -6625.348544  13071.855350 -22229.293588     11.377186
P 14 -12085.892783 -18470.411640  14856.276279    -27.122999
P 15   -497.505488 -26117.816069   3415.280773    481.578548
P 16 -16942.154710  -5949.828616 -19509.897793      7.536550
P 18  13391.166762 -18045.667302  14001.791660   -183.399565
P 19 -23170.656270  -4938.315387  12124.954242    -25.685933
P 20 -22804.823591  13604.502210   -119.944455    -50.554374
P 21   7008.204474 -23905.105969  -8430.427876    125.089034
P 22   1083.544347 -16853.291573  20656.318775     36.854585
P 23 -17621.840331   5327.973827 -19297.333565    177.701989
P 24  -4802.616604  25557.735776   5130.388317     42.650546
P 25 -10147.105124 -21523.542385 -11334.828807    101.965845
P 26  23975.094130   7101.838633   9437.783334     12.184631
P 27  -4937.622699  24035.227756  -9079.749594     13.102892
P 28  -2995.188892  17586.498189  19816.677437     42.529083
P 29  24401.897525   9503.448266   5286.579465    280.122390
P 30  17476.089601 -18174.053564  -8417.560266    361.121757
P 31   2690.364244  17393.236465  19466.073647     15.597899
EOF
